[{"OBJECT_NAME":"SIGI","OBJECT_ID":"2025-009Z","EPOCH":"2026-03-09T22:08:54.692736","MEAN_MOTION":15.23445824,"ECCENTRICITY":0.00019568,"INCLINATION":97.4047,"RA_OF_ASC_NODE":150.3738,"ARG_OF_PERICENTER":318.6476,"MEAN_ANOMALY":41.4612,"EPHEMERIS_TYPE":0,"CLASSIFICATION_TYPE":"U","NORAD_CAT_ID":62632,"ELEMENT_SET_NO":999,"REV_AT_EPOCH":6368,"BSTAR":0.00028660124,"MEAN_MOTION_DOT":6.759e-5,"MEAN_MOTION_DDOT":0},{"OBJECT_NAME":"FREGAT DEB","OBJECT_ID":"2011-037DJ","EPOCH":"2026-03-09T05:46:54.234336","MEAN_MOTION":14.1723702,"ECCENTRICITY":0.05960905,"INCLINATION":51.3214,"RA_OF_ASC_NODE":17.6938,"ARG_OF_PERICENTER":2.2668,"MEAN_ANOMALY":358.0757,"EPHEMERIS_TYPE":0,"CLASSIFICATION_TYPE":"U","NORAD_CAT_ID":45889,"ELEMENT_SET_NO":999,"REV_AT_EPOCH":24920,"BSTAR":0.025332087,"MEAN_MOTION_DOT":0.00335975,"MEAN_MOTION_DDOT":0}]
